OBJECT_NAME,OBJECT_ID,EPOCH,MEAN_MOTION,ECCENTRICITY,INCLINATION,RA_OF_ASC_NODE,ARG_OF_PERICENTER,MEAN_ANOMALY,EPHEMERIS_TYPE,CLASSIFICATION_TYPE,NORAD_CAT_ID,ELEMENT_SET_NO,REV_AT_EPOCH,BSTAR,MEAN_MOTION_DOT,MEAN_MOTION_DDOT
STARLINK-31349,2024-056X,2026-06-18T07:25:20.997984,15.27578947,.0001399,42.9980,22.3880,274.9812,85.0879,0,U,59317,999,12661,.26664E-4,.472E-5,0
STARLINK-31464,2024-056Y,2026-06-18T21:21:39.819744,15.27572054,.00013614,43.0021,19.0065,270.5889,89.4806,0,U,59318,999,12663,-.877872E-6,-.286E-5,0
STARLINK-31402,2024-057A,2026-06-18T15:14:20.111136,15.31201134,.00058666,42.9972,288.9447,334.3800,25.6762,0,U,59320,999,12581,.15342177E-2,.47256E-3,0
STARLINK-31578,2024-057B,2026-06-18T12:17:25.250784,15.27574605,.0001193,43.0049,337.2448,274.8103,85.2612,0,U,59321,999,12526,.77129E-6,-.241E-5,0
STARLINK-31530,2024-057C,2026-06-16T03:04:51.019392,15.69039117,.00272908,42.9906,324.9465,315.4738,44.3936,0,U,59322,999,12519,.63974808E-3,.78045E-3,0
STARLINK-31565,2024-057D,2026-06-18T12:51:23.444928,15.27577376,.0002026,43.0083,345.2136,282.3193,77.7432,0,U,59323,999,12517,.19655E-4,.278E-5,0
STARLINK-31570,2024-057E,2026-06-18T18:30:33.105600,15.27575460,.0000923,42.9969,336.6102,277.8540,82.2207,0,U,59324,999,12529,.665771E-5,-.79E-6,0
STARLINK-31611,2024-057F,2026-06-18T18:32:24.397440,15.27577209,.00009275,43.0016,336.6215,259.0938,100.9810,0,U,59325,999,12529,.375389E-6,-.252E-5,0
STARLINK-31632,2024-057G,2026-06-18T13:05:30.679872,15.27569324,.0001344,43.0044,348.7419,265.5865,94.4833,0,U,59326,999,12513,-.13925E-4,-.645E-5,0
STARLINK-31599,2024-057H,2026-06-18T22:06:23.449536,15.27564273,.00016693,43.0017,335.1545,235.1035,124.9660,0,U,59327,999,12532,.11104578E-3,.2793E-4,0
STARLINK-31614,2024-057J,2026-06-18T17:59:05.630208,15.27582000,.00010095,42.9991,336.4505,274.1883,85.8854,0,U,59328,999,12529,.1799447E-5,-.212E-5,0
STARLINK-31493,2024-057K,2026-06-18T17:35:02.303520,15.27578835,.00016735,43.0032,336.3202,274.6321,85.4339,0,U,59329,999,12529,.26011465E-4,.454E-5,0
STARLINK-31634,2024-057L,2026-06-17T21:48:00.390240,15.27615539,.0001689,43.0056,341.3113,274.1924,85.8734,0,U,59330,999,12516,-.28986761E-3,-.8239E-4,0
STARLINK-31633,2024-057M,2026-06-18T18:08:20.934240,15.27575359,.00015153,43.0037,336.4915,284.2565,75.8118,0,U,59331,999,12529,.34746551E-4,.694E-5,0
STARLINK-31594,2024-057N,2026-06-18T21:01:49.187136,15.27587031,.0001369,43.0054,346.9236,266.9621,93.1074,0,U,59332,999,12518,.63666702E-4,.149E-4,0
STARLINK-31572,2024-057P,2026-06-18T13:14:43.571616,15.27587349,.0000747,43.0024,348.7877,241.5114,118.5663,0,U,59333,999,12513,-.11032E-3,-.3297E-4,0
STARLINK-31573,2024-057Q,2026-06-18T12:19:15.987072,15.27575463,.0000851,43.0001,337.2493,269.0877,90.9877,0,U,59334,999,12526,.86688E-5,-.23E-6,0
STARLINK-31588,2024-057R,2026-06-18T12:28:31.386144,15.27573059,.0001114,43.0019,337.3014,278.4571,81.6154,0,U,59335,999,12526,.28832E-5,-.183E-5,0
STARLINK-31596,2024-057S,2026-06-18T21:59:00.250368,15.27578046,.00009697,43.0016,335.1132,226.1791,133.8980,0,U,59336,999,12532,.9377706E-5,-.4E-7,0
STARLINK-31612,2024-057T,2026-06-18T17:49:50.408256,15.27578301,.00018689,43.0018,336.3983,278.6320,81.4320,0,U,59337,999,12529,.18935986E-4,.259E-5,0
STARLINK-31550,2024-057U,2026-06-18T18:26:50.873568,15.27575099,.0001324,43.0047,336.5914,268.4259,91.6441,0,U,59338,999,12529,-.23094141E-4,-.897E-5,0
STARLINK-31473,2024-057V,2026-06-18T19:07:21.017856,15.27576053,.00013974,43.0016,335.9390,271.0773,88.9919,0,U,59339,999,12530,.11875272E-4,.65E-6,0
STARLINK-31562,2024-057W,2026-06-18T13:34:24.760704,15.27572999,.0001477,43.0035,352.3655,271.7434,88.3248,0,U,59340,999,12509,-.21447E-5,-.321E-5,0
STARLINK-31600,2024-057X,2026-06-18T20:47:43.556640,15.27575070,.00010435,43.0043,343.3897,268.5419,91.5313,0,U,59341,999,12522,.15434986E-4,.163E-5,0
STARLINK-31628,2024-057Y,2026-06-18T11:46:10.759584,15.27573690,.0001427,43.0035,337.9414,267.6678,92.4010,0,U,59342,999,12525,.66051E-5,-.8E-6,0
YUNHAI-3 02,2024-058A,2026-06-18T23:00:45.859104,14.13326738,.00016051,98.8202,177.7874,58.5201,301.6128,0,U,59343,999,11499,.4741865E-5,-.35E-6,0
EUTELSAT 36D,2024-059A,2026-06-18T20:37:39.308736,1.00269707,.00001285,0.0177,27.9404,169.0663,55.3692,0,U,59346,999,816,0,.149E-5,0
STARLINK-31605,2024-060A,2026-06-18T08:50:48.323040,15.27574872,.0001695,43.0033,40.6138,270.8042,89.2615,0,U,59348,999,12552,.13027E-4,.96E-6,0
STARLINK-31532,2024-060B,2026-06-18T17:12:48.183840,15.27573128,.00012962,43.0040,49.3119,267.2427,92.8277,0,U,59349,999,12556,.12747691E-4,.89E-6,0
STARLINK-31593,2024-060C,2026-06-18T22:46:52.569120,15.27574048,.00009444,43.0021,47.6110,262.6659,97.4085,0,U,59350,999,12555,.11047751E-4,.42E-6,0
STARLINK-31555,2024-060D,2026-06-18T01:42:20.473056,15.27566645,.00015753,43.0052,53.0602,263.4992,96.5680,0,U,59351,999,12546,-.30259066E-4,-.1094E-4,0
STARLINK-31561,2024-060E,2026-06-18T22:43:09.657120,15.27583751,.00004133,42.9957,47.5915,247.5016,112.5792,0,U,59352,999,12555,.5903953E-4,.1363E-4,0
STARLINK-31413,2024-060F,2026-06-18T23:03:31.106880,15.27572938,.00010783,43.0027,47.7037,265.3357,94.7372,0,U,59353,999,12555,-.82963448E-4,-.2544E-4,0
STARLINK-31422,2024-060G,2026-06-18T22:37:49.679040,15.27577600,.00011656,43.0016,48.4235,277.5689,82.5031,0,U,59354,999,12554,.26261618E-4,.461E-5,0
STARLINK-31416,2024-060H,2026-06-18T17:18:21.313728,15.27572710,.00010236,43.0043,49.3389,271.5051,88.5683,0,U,59355,999,12551,.944923E-5,-.2E-7,0
STARLINK-31552,2024-060J,2026-06-18T22:32:16.859328,15.27576961,.00010416,43.0017,48.4095,261.3162,98.7572,0,U,59356,999,12554,.19516687E-4,.275E-5,0
STARLINK-31557,2024-060K,2026-06-18T22:23:30.251328,15.27575863,.00009321,43.0002,43.9930,266.2245,93.8500,0,U,59357,999,12559,.30610521E-4,.58E-5,0
STARLINK-31559,2024-060L,2026-06-18T23:14:37.948992,15.27562074,.00017465,43.0030,47.7592,268.2292,91.8360,0,U,59358,999,12555,.19754973E-4,.281E-5,0
STARLINK-31501,2024-060M,2026-06-18T22:21:10.761984,15.27572796,.00016314,43.0034,48.3404,267.1235,92.9430,0,U,59359,999,12554,.9528985E-5,0,0
STARLINK-31549,2024-060N,2026-06-18T22:57:58.358880,15.27574065,.0000965,43.0004,47.6701,270.1158,89.9583,0,U,59360,999,12555,.10438605E-4,.25E-6,0
STARLINK-31560,2024-060P,2026-06-18T22:11:55.311936,15.27575637,.00014077,43.0039,48.2843,245.0085,115.0621,0,U,59361,999,12554,.4526122E-5,-.138E-5,0
STARLINK-31571,2024-060Q,2026-06-18T22:15:37.265760,15.27576232,.00013943,43.0048,48.3085,274.8089,85.2604,0,U,59362,999,12554,-.10521974E-4,-.552E-5,0
STARLINK-31553,2024-060R,2026-06-18T22:00:21.800736,15.27584132,.00013523,43.0027,41.2949,262.4659,97.6039,0,U,59363,999,12562,.63468954E-4,.1485E-4,0
STARLINK-31547,2024-060S,2026-06-18T21:42:20.674080,15.27577920,.00011652,43.0015,36.8843,265.4648,94.6070,0,U,59364,999,12567,.19751667E-4,.281E-5,0
STARLINK-31537,2024-060T,2026-06-18T22:26:42.745344,15.27581722,.00021282,43.0034,48.3637,268.5832,91.4776,0,U,59365,999,12554,.31645018E-4,.608E-5,0
STARLINK-31451,2024-060U,2026-06-18T22:52:24.174048,15.27582902,.00008004,43.0023,47.6432,266.0861,93.9899,0,U,59366,999,12555,.39657841E-4,.83E-5,0
STARLINK-31428,2024-060V,2026-06-18T23:09:06.708672,15.27545555,.00010597,43.0036,47.7279,272.9169,87.1562,0,U,59367,999,12555,-.1277107E-3,-.3771E-4,0
STARLINK-31419,2024-060W,2026-06-18T23:18:18.773568,15.27571341,.00012775,43.0020,47.7753,289.6665,70.4049,0,U,59368,999,12555,.64794582E-4,.1521E-4,0
STARLINK-31583,2024-060X,2026-06-18T22:23:03.206400,15.27574709,.00010138,43.0044,37.1011,286.6883,73.3857,0,U,59369,999,12567,.6826134E-5,-.74E-6,0
STARLINK-31461,2024-060Y,2026-06-18T00:41:30.801408,15.27577047,.00011179,43.0052,42.3566,273.4845,86.5879,0,U,59370,999,12547,.8981942E-5,-.15E-6,0
RESURS-P 4,2024-061A,2026-06-18T23:04:11.172288,15.32139479,.00023074,97.2753,117.8291,124.8270,235.3189,0,U,59371,999,12403,.81125345E-4,.2441E-4,0
STARLINK-31641,2024-062A,2026-06-18T05:20:01.188672,15.34403130,.000106,53.1595,150.1123,95.9673,264.1450,0,U,59374,999,12503,.27933E-4,.568E-5,0
STARLINK-31430,2024-062B,2026-06-18T15:40:21.836064,15.34383887,.00011809,53.1593,148.5305,97.8721,262.2416,0,U,59375,999,12510,.69048814E-4,.1956E-4,0
STARLINK-31695,2024-062C,2026-06-18T06:10:45.337152,15.34357677,.0001329,53.1614,148.1937,83.0234,277.0920,0,U,59376,999,12503,-.89376E-4,-.339E-4,0
STARLINK-31716,2024-062D,2026-06-18T23:23:54.710592,15.30181530,.00010407,53.1597,96.5552,93.6437,266.4683,0,U,59377,999,12581,.1405203E-5,-.317E-5,0
STARLINK-31710,2024-062E,2026-06-18T15:12:18.720864,15.34375852,.00011097,53.1608,146.2735,103.2344,256.8783,0,U,59378,999,12509,-.27322194E-4,-.1298E-4,0
STARLINK-31698,2024-062F,2026-06-18T08:38:56.292864,15.34372563,.0001794,53.1590,147.4287,75.0877,285.0324,0,U,59379,999,12505,-.11604E-3,-.4291E-4,0
STARLINK-31680,2024-062G,2026-06-18T03:55:18.502176,15.34383928,.0001166,53.1595,150.4516,104.1985,255.9147,0,U,59380,999,12499,.86855E-4,.2558E-4,0
STARLINK-31713,2024-062H,2026-06-18T16:13:33.568608,15.34388379,.00011495,53.1594,147.9646,84.0954,276.0180,0,U,59381,999,12507,.5041757E-5,-.206E-5,0
STARLINK-31705,2024-062J,2026-06-18T07:32:23.721216,15.34403939,.0001323,53.1607,147.8354,62.8385,297.2752,0,U,59382,999,12504,.3378E-4,.765E-5,0
STARLINK-31715,2024-062L,2026-06-18T22:00:01.999584,15.34358371,.00013449,53.1613,145.2483,102.6905,231.2584,0,U,59384,999,590,.11227333E-2,.37698E-3,0
STARLINK-31717,2024-062M,2026-06-18T15:09:15.228864,15.34391478,.00010791,53.1606,146.2627,96.8789,263.2336,0,U,59385,999,12512,.24283248E-4,.444E-5,0
STARLINK-31688,2024-062N,2026-06-18T05:26:04.447968,15.34392252,.0001196,53.1602,150.1341,87.3216,272.7923,0,U,59386,999,12500,.31225E-4,.679E-5,0
STARLINK-31714,2024-062P,2026-06-18T08:44:58.644960,15.34392938,.000111,53.1598,147.4402,89.2895,270.8235,0,U,59387,999,12504,.21029E-4,.334E-5,0
